FALCONSAT-10            
1 58291U 23174AM  26068.70247784  .00006748  00000+0  25969-3 0  9991
2 58291  97.3865 145.7938 0008932 169.5942 190.5483 15.26670596129582
STARLINK-32370          
1 61635U 24191Q   26068.32109516 -.00009212  00000+0 -32541-3 0  9990
2 61635  43.0018 156.2721 0001144 255.1076 104.9649 15.27602679 77483
